CHINASAT 1C (ZX 1C)     
1 41103U 15073A   16268.03346051 -.00000182  00000-0  00000+0 0  9991
2 41103   0.0159 159.5071 0002388  66.0304 231.3342  1.00272049  3044
ELEKTRO-L 2             
1 41105U 15074A   16268.03379120 -.00000127  00000-0  00000+0 0  9996
2 41105   0.0606 298.2684 0001160 243.9226 269.2299  1.00270066  2890
COSMOS 2513             
1 41121U 15075A   16268.09594848 -.00000169  00000-0  00000+0 0  9993
2 41121   0.0612  84.1119 0002180 133.5422 260.5009  1.00271374  2970
EXPRESS-AMU1            
1 41191U 15082A   16267.98422388  .00000125  00000-0  00000+0 0  9995
2 41191   0.0054 226.8393 0001985 307.2181 219.6517  1.00275645  2884
GAOFEN 4                
1 41194U 15083A   16267.97907380 -.00000366  00000-0  00000+0 0  9996
2 41194   0.0806 216.0711 0002633  46.1733 199.1739  1.00272218  2869
BELINTERSAT-1           
1 41238U 16001A   16268.25396664  .00000076  00000-0  10000-3 0  9997
2 41238   0.0459  13.1190 0001353 137.1309 356.1704  1.00271536  2653
IRNSS-1E                
1 41241U 16003A   16267.01654864 -.00000299  00000-0  00000+0 0  9998
2 41241  28.3679 119.3772 0018759 182.4541 177.6512  1.00260006  2561
INTELSAT 29E (IS-29E)   
1 41308U 16004A   16268.12946862 -.00000313  00000-0  00000+0 0  9995
2 41308   0.0247 253.5765 0001969 295.7454 170.6824  1.00272001  2536
EUTELSAT 9B             
1 41310U 16005A   16267.96602114  .00000031  00000-0  00000+0 0  9995
2 41310   0.0585 130.8957 0002551 129.0402 100.0437  1.00272520  2481
EUTELSAT 65 WEST A      
1 41382U 16014A   16268.17157503 -.00000307  00000-0  00000+0 0  9992
2 41382   0.0180   3.3433 0001821 207.4740 149.1719  1.00271714  2019
IRNSS-1F                
1 41384U 16015A   16266.65615517  .00000000  00000-0  10000-3 0  9994
2 41384   4.7168 271.0113 0021774 187.3554 172.3742  1.00275629  2052
BEIDOU IGSO 6           
1 41434U 16021A   16268.23115718 -.00000107  00000-0  10000-3 0  9990
2 41434  55.1916  75.3336 0029129 173.9593 292.4136  1.00286356  1865
IRNSS-1G                
1 41469U 16027A   16267.38854657 -.00000371  00000-0  00000-0 0  9990
2 41469   4.7914 272.1853 0001840 237.0082 122.7425  1.00264820  1562
JCSAT-14                
1 41471U 16028A   16267.56443302 -.00000195  00000-0  00000+0 0  9998
2 41471   0.0174 198.3455 0002101 312.5423 209.1328  1.00271839  1456
THAICOM 8               
1 41552U 16031A   16267.94391348  .00000000  00000-0  10000-3 0  9995
2 41552   0.0781  47.9492 0002282  51.0372 322.5046  1.00268105  2245
INTELSAT 31 (IS-31)     
1 41581U 16035A   16266.82623957 -.00000175  00000-0  10000-3 0  9995
2 41581   0.0159 237.5784 0001385 336.8628 350.0209  1.00264570876099
BEIDOU G7               
1 41586U 16037A   16268.44511008 -.00000280  00000-0  00000+0 0  9997
2 41586   1.6826 308.9875 0004282 276.9353  82.5424  1.00273714  1180
BRISAT                  
1 41591U 16039A   16267.57419756 -.00000227  00000-0  00000+0 0  9996
2 41591   0.0221 202.9104 0002146 335.4222 181.6681  1.00270847  1011
ECHOSTAR 18             
1 41592U 16039B   16268.16093114 -.00000313  00000-0  00000+0 0  9995
2 41592   0.0307  71.7277 0002079 114.0320 174.2458  1.00274166  1013
